[{"OBJECT_NAME":"STARLINK-2213","OBJECT_ID":"2021-017BL","EPOCH":"2026-03-09T15:45:02.208384","MEAN_MOTION":15.30203136,"ECCENTRICITY":0.00011135,"INCLINATION":53.1589,"RA_OF_ASC_NODE":203.9945,"ARG_OF_PERICENTER":71.0225,"MEAN_ANOMALY":289.0897,"EPHEMERIS_TYPE":0,"CLASSIFICATION_TYPE":"U","NORAD_CAT_ID":47780,"ELEMENT_SET_NO":999,"REV_AT_EPOCH":27789,"BSTAR":0.00070253511,"MEAN_MOTION_DOT":0.00020507,"MEAN_MOTION_DDOT":0},{"OBJECT_NAME":"YAOGAN-43 01D","OBJECT_ID":"2024-148D","EPOCH":"2026-03-09T10:27:16.254720","MEAN_MOTION":15.28369377,"ECCENTRICITY":0.00025569,"INCLINATION":35.001,"RA_OF_ASC_NODE":61.7102,"ARG_OF_PERICENTER":326.2473,"MEAN_ANOMALY":33.808,"EPHEMERIS_TYPE":0,"CLASSIFICATION_TYPE":"U","NORAD_CAT_ID":60461,"ELEMENT_SET_NO":999,"REV_AT_EPOCH":8700,"BSTAR":0.00037765912,"MEAN_MOTION_DOT":0.00010676,"MEAN_MOTION_DDOT":0}]
